METEOR-M2 4             
1 59051U 24039A   25126.17504269  .00000043  00000+0  39042-4 0  9996
2 59051  98.6469  86.9566 0005884 269.0678  90.9825 14.22362885 61402
GOES 19                 
1 60133U 24119A   25125.79715995 -.00000255  00000+0  00000+0 0  9998
2 60133   0.0139 110.8003 0000349 328.7471 356.1414  1.00267666  2874
