[
  {
    "OBJECT_NAME": "METEOR-M2 4",
    "OBJECT_ID": "2024-039A",
    "EPOCH": "2025-05-06T04:12:03.688416",
    "MEAN_MOTION": 14.22362885,
    "ECCENTRICITY": 0.0005884,
    "INCLINATION": 98.6469,
    "RA_OF_ASC_NODE": 86.9566,
    "ARG_OF_PERICENTER": 269.0678,
    "MEAN_ANOMALY": 90.9825,
    "EPHEMERIS_TYPE": 0,
    "CLASSIFICATION_TYPE": "U",
    "NORAD_CAT_ID": 59051,
    "ELEMENT_SET_NO": 999,
    "REV_AT_EPOCH": 6140,
    "BSTAR": 3.9042e-05,
    "MEAN_MOTION_DOT": 4.3e-07,
    "MEAN_MOTION_DDOT": 0
  },
  {
    "OBJECT_NAME": "GOES 19",
    "OBJECT_ID": "2024-119A",
    "EPOCH": "2025-05-05T19:07:54.619680",
    "MEAN_MOTION": 1.00267666,
    "ECCENTRICITY": 3.49e-05,
    "INCLINATION": 0.0139,
    "RA_OF_ASC_NODE": 110.8003,
    "ARG_OF_PERICENTER": 328.7471,
    "MEAN_ANOMALY": 356.1414,
    "EPHEMERIS_TYPE": 0,
    "CLASSIFICATION_TYPE": "U",
    "NORAD_CAT_ID": 60133,
    "ELEMENT_SET_NO": 999,
    "REV_AT_EPOCH": 287,
    "BSTAR": 0,
    "MEAN_MOTION_DOT": -2.55e-06,
    "MEAN_MOTION_DDOT": 0
  }
]